[
        {
            "id": "01",
            "name": "Albigny-sur-Saône ",
            "postal_code": "69003",
            "social_housing_rate": "24.31",
            "color_opacity": "0.44"
        },
        {
            "id": "02",
            "name": "Bron ",
            "postal_code": "69029",
            "social_housing_rate": "27.13",
            "color_opacity": "0.49"
        },
        {
            "id": "03",
            "name": "Cailloux-sur-Fontaines ",
            "postal_code": "69033",
            "social_housing_rate": "3.66",
            "color_opacity": "0.07"
        },
        {
            "id": "04",
            "name": "Caluire-et-Cuire ",
            "postal_code": "69034",
            "social_housing_rate": "18.61",
            "color_opacity": "0.34"
        },
        {
            "id": "05",
            "name": "Champagne-au-Mont-d'Or ",
            "postal_code": "69040",
            "social_housing_rate": "23.78",
            "color_opacity": "0.43"
        },
        {
            "id": "06",
            "name": "Charbonnières-les-Bains ",
            "postal_code": "69044",
            "social_housing_rate": "13.15",
            "color_opacity": "0.24"
        },
        {
            "id": "07",
            "name": "Charly ",
            "postal_code": "69046",
            "social_housing_rate": "5.17",
            "color_opacity": "0.09"
        },
        {
            "id": "08",
            "name": "Chassieu ",
            "postal_code": "69271",
            "social_housing_rate": "15.57",
            "color_opacity": "0.28"
        },
        {
            "id": "09",
            "name": "Collonges-au-Mont-d'Or ",
            "postal_code": "69063",
            "social_housing_rate": "10.33",
            "color_opacity": "0.19"
        },
        {
            "id": "10",
            "name": "Corbas ",
            "postal_code": "69273",
            "social_housing_rate": "13.37",
            "color_opacity": "0.24"
        },
        {
            "id": "11",
            "name": "Couzon-au-Mont-d'Or ",
            "postal_code": "69068",
            "social_housing_rate": "11.22",
            "color_opacity": "0.20"
        },
        {
            "id": "12",
            "name": "Craponne ",
            "postal_code": "69069",
            "social_housing_rate": "15.25",
            "color_opacity": "0.28"
        },
        {
            "id": "13",
            "name": "Curis-au-Mont-d'Or ",
            "postal_code": "69071",
            "social_housing_rate": "5.47",
            "color_opacity": "0.10"
        },
        {
            "id": "14",
            "name": "Dardilly ",
            "postal_code": "69072",
            "social_housing_rate": "17.12",
            "color_opacity": "0.31"
        },
        {
            "id": "15",
            "name": "Décines-Charpieu ",
            "postal_code": "69275",
            "social_housing_rate": "23",
            "color_opacity": "0.42"
        },
        {
            "id": "16",
            "name": "Écully ",
            "postal_code": "69081",
            "social_housing_rate": "29.56",
            "color_opacity": "0.54"
        },
        {
            "id": "17",
            "name": "Feyzin ",
            "postal_code": "69276",
            "social_housing_rate": "32.21",
            "color_opacity": "0.59"
        },
        {
            "id": "18",
            "name": "Fleurieu-sur-Saône ",
            "postal_code": "69085",
            "social_housing_rate": "3.51",
            "color_opacity": "0.06"
        },
        {
            "id": "19",
            "name": "Fontaines-Saint-Martin ",
            "postal_code": "69087",
            "social_housing_rate": "5.07",
            "color_opacity": "0.09"
        },
        {
            "id": "20",
            "name": "Fontaines-sur-Saône ",
            "postal_code": "69088",
            "social_housing_rate": "24.51",
            "color_opacity": "0.45"
        },
        {
            "id": "21",
            "name": "Francheville ",
            "postal_code": "69089",
            "social_housing_rate": "17.52",
            "color_opacity": "0.32"
        },
        {
            "id": "22",
            "name": "Genay ",
            "postal_code": "69278",
            "social_housing_rate": "17.68",
            "color_opacity": "0.32"
        },
        {
            "id": "23",
            "name": "Givors ",
            "postal_code": "69091",
            "social_housing_rate": "43.46",
            "color_opacity": "0.79"
        },
        {
            "id": "24",
            "name": "Grigny ",
            "postal_code": "69096",
            "social_housing_rate": "30.65",
            "color_opacity": "0.56"
        },
        {
            "id": "25",
            "name": "Irigny ",
            "postal_code": "69100",
            "social_housing_rate": "19.59",
            "color_opacity": "0.36"
        },
        {
            "id": "26",
            "name": "Jonage ",
            "postal_code": "69279",
            "social_housing_rate": "0.93",
            "color_opacity": "0.02"
        },
        {
            "id": "27",
            "name": "La Mulatière ",
            "postal_code": "69142",
            "social_housing_rate": "23.36",
            "color_opacity": "0.42"
        },
        {
            "id": "28",
            "name": "La Tour-de-Salvagny ",
            "postal_code": "69250",
            "social_housing_rate": "9.47",
            "color_opacity": "0.17"
        },
        {
            "id": "29",
            "name": "Limonest ",
            "postal_code": "69116",
            "social_housing_rate": "15.91",
            "color_opacity": "0.29"
        },
        {
            "id": "30",
            "name": "Lissieu ",
            "postal_code": "69117",
            "social_housing_rate": "10.16",
            "color_opacity": "0.18"
        },
        {
            "id": "31",
            "name": "Lyon 1er Arrondissement ",
            "postal_code": "69381",
            "social_housing_rate": "0",
            "color_opacity": "0.00"
        },
        {
            "id": "32",
            "name": "Lyon 2e Arrondissement ",
            "postal_code": "69382",
            "social_housing_rate": "0",
            "color_opacity": "0.00"
        },
        {
            "id": "33",
            "name": "Lyon 3e Arrondissement ",
            "postal_code": "69383",
            "social_housing_rate": "0",
            "color_opacity": "0.00"
        },
        {
            "id": "34",
            "name": "Lyon 4e Arrondissement ",
            "postal_code": "69384",
            "social_housing_rate": "0",
            "color_opacity": "0.00"
        },
        {
            "id": "35",
            "name": "Lyon 5e Arrondissement ",
            "postal_code": "69385",
            "social_housing_rate": "0",
            "color_opacity": "0.00"
        },
        {
            "id": "36",
            "name": "Lyon 6e Arrondissement ",
            "postal_code": "69386",
            "social_housing_rate": "0",
            "color_opacity": "0.00"
        },
        {
            "id": "37",
            "name": "Lyon 7e Arrondissement ",
            "postal_code": "69387",
            "social_housing_rate": "0",
            "color_opacity": "0.00"
        },
        {
            "id": "38",
            "name": "Lyon 8e Arrondissement ",
            "postal_code": "69388",
            "social_housing_rate": "0",
            "color_opacity": "0.00"
        },
        {
            "id": "39",
            "name": "Lyon 9e Arrondissement ",
            "postal_code": "69389",
            "social_housing_rate": "0",
            "color_opacity": "0.00"
        },
        {
            "id": "40",
            "name": "Marcy-l'Étoile ",
            "postal_code": "69127",
            "social_housing_rate": "15.6",
            "color_opacity": "0.28"
        },
        {
            "id": "41",
            "name": "Meyzieu ",
            "postal_code": "69282",
            "social_housing_rate": "20.21",
            "color_opacity": "0.37"
        },
        {
            "id": "42",
            "name": "Mions ",
            "postal_code": "69283",
            "social_housing_rate": "16.52",
            "color_opacity": "0.30"
        },
        {
            "id": "43",
            "name": "Montanay ",
            "postal_code": "69284",
            "social_housing_rate": "4.74",
            "color_opacity": "0.09"
        },
        {
            "id": "44",
            "name": "Neuville-sur-Saône ",
            "postal_code": "69143",
            "social_housing_rate": "23.54",
            "color_opacity": "0.43"
        },
        {
            "id": "45",
            "name": "Oullins ",
            "postal_code": "69149",
            "social_housing_rate": "17.68",
            "color_opacity": "0.32"
        },
        {
            "id": "46",
            "name": "Pierre-Bénite ",
            "postal_code": "69152",
            "social_housing_rate": "23.83",
            "color_opacity": "0.43"
        },
        {
            "id": "47",
            "name": "Poleymieux-au-Mont-d'Or ",
            "postal_code": "69153",
            "social_housing_rate": "5.15",
            "color_opacity": "0.09"
        },
        {
            "id": "48",
            "name": "Quincieux ",
            "postal_code": "69163",
            "social_housing_rate": "9.78",
            "color_opacity": "0.18"
        },
        {
            "id": "49",
            "name": "Rillieux-la-Pape ",
            "postal_code": "69286",
            "social_housing_rate": "53.33",
            "color_opacity": "0.97"
        },
        {
            "id": "50",
            "name": "Rochetaillée-sur-Saône ",
            "postal_code": "69168",
            "social_housing_rate": "20.21",
            "color_opacity": "0.37"
        },
        {
            "id": "51",
            "name": "Saint-Cyr-au-Mont-d'Or ",
            "postal_code": "69191",
            "social_housing_rate": "12.89",
            "color_opacity": "0.23"
        },
        {
            "id": "52",
            "name": "Saint-Didier-au-Mont-d'Or ",
            "postal_code": "69194",
            "social_housing_rate": "7.54",
            "color_opacity": "0.14"
        },
        {
            "id": "53",
            "name": "Sainte-Foy-lès-Lyon ",
            "postal_code": "69202",
            "social_housing_rate": "11.76",
            "color_opacity": "0.21"
        },
        {
            "id": "54",
            "name": "Saint-Fons ",
            "postal_code": "69199",
            "social_housing_rate": "50.23",
            "color_opacity": "0.91"
        },
        {
            "id": "55",
            "name": "Saint-Genis-Laval ",
            "postal_code": "69204",
            "social_housing_rate": "17.13",
            "color_opacity": "0.31"
        },
        {
            "id": "56",
            "name": "Saint-Genis-les-Ollières ",
            "postal_code": "69205",
            "social_housing_rate": "12.82",
            "color_opacity": "0.23"
        },
        {
            "id": "57",
            "name": "Saint-Germain-au-Mont-d'Or ",
            "postal_code": "69207",
            "social_housing_rate": "30.2",
            "color_opacity": "0.55"
        },
        {
            "id": "58",
            "name": "Saint-Priest ",
            "postal_code": "69290",
            "social_housing_rate": "32.5",
            "color_opacity": "0.59"
        },
        {
            "id": "59",
            "name": "Saint-Romain-au-Mont-d'Or ",
            "postal_code": "69233",
            "social_housing_rate": "7.64",
            "color_opacity": "0.14"
        },
        {
            "id": "60",
            "name": "Sathonay-Camp ",
            "postal_code": "69292",
            "social_housing_rate": "28.87",
            "color_opacity": "0.52"
        },
        {
            "id": "61",
            "name": "Sathonay-Village ",
            "postal_code": "69293",
            "social_housing_rate": "3.97",
            "color_opacity": "0.07"
        },
        {
            "id": "62",
            "name": "Solaize ",
            "postal_code": "69296",
            "social_housing_rate": "3.55",
            "color_opacity": "0.06"
        },
        {
            "id": "63",
            "name": "Tassin-la-Demi-Lune ",
            "postal_code": "69244",
            "social_housing_rate": "10.86",
            "color_opacity": "0.20"
        },
        {
            "id": "64",
            "name": "Vaulx-en-Velin ",
            "postal_code": "69256",
            "social_housing_rate": "54.35",
            "color_opacity": "0.99"
        },
        {
            "id": "65",
            "name": "Vénissieux ",
            "postal_code": "69259",
            "social_housing_rate": "49.27",
            "color_opacity": "0.90"
        },
        {
            "id": "66",
            "name": "Vernaison ",
            "postal_code": "69260",
            "social_housing_rate": "23.09",
            "color_opacity": "0.42"
        },
        {
            "id": "67",
            "name": "Villeurbanne ",
            "postal_code": "69266",
            "social_housing_rate": "27.55",
            "color_opacity": "0.50"
        }
]